[{"OBJECT_NAME":"ONEWEB-0576","OBJECT_ID":"2023-043V","EPOCH":"2026-02-18T03:01:56.706528","MEAN_MOTION":13.16595749,"ECCENTRICITY":0.00015297,"INCLINATION":87.9001,"RA_OF_ASC_NODE":252.4664,"ARG_OF_PERICENTER":83.5436,"MEAN_ANOMALY":276.5869,"EPHEMERIS_TYPE":0,"CLASSIFICATION_TYPE":"U","NORAD_CAT_ID":56065,"ELEMENT_SET_NO":999,"REV_AT_EPOCH":14329,"BSTAR":0.00012278093,"MEAN_MOTION_DOT":6.0e-7,"MEAN_MOTION_DDOT":0},{"OBJECT_NAME":"ONEWEB-0577","OBJECT_ID":"2023-043W","EPOCH":"2026-02-18T01:21:37.777536","MEAN_MOTION":13.16595441,"ECCENTRICITY":0.00013085,"INCLINATION":87.8999,"RA_OF_ASC_NODE":252.4789,"ARG_OF_PERICENTER":59.9331,"MEAN_ANOMALY":300.193,"EPHEMERIS_TYPE":0,"CLASSIFICATION_TYPE":"U","NORAD_CAT_ID":56066,"ELEMENT_SET_NO":999,"REV_AT_EPOCH":14331,"BSTAR":3.6015377e-5,"MEAN_MOTION_DOT":2.7e-7,"MEAN_MOTION_DDOT":0},{"OBJECT_NAME":"ONEWEB-0578","OBJECT_ID":"2023-043X","EPOCH":"2026-02-18T02:36:15.417792","MEAN_MOTION":13.21826344,"ECCENTRICITY":0.00017921,"INCLINATION":87.9178,"RA_OF_ASC_NODE":267.725,"ARG_OF_PERICENTER":84.6009,"MEAN_ANOMALY":275.533,"EPHEMERIS_TYPE":0,"CLASSIFICATION_TYPE":"U","NORAD_CAT_ID":56067,"ELEMENT_SET_NO":999,"REV_AT_EPOCH":14250,"BSTAR":0.00024088352,"MEAN_MOTION_DOT":1.13e-6,"MEAN_MOTION_DDOT":0},{"OBJECT_NAME":"ONEWEB-0579","OBJECT_ID":"2023-043Y","EPOCH":"2026-02-18T02:22:02.322336","MEAN_MOTION":13.21824955,"ECCENTRICITY":0.00013923,"INCLINATION":87.9181,"RA_OF_ASC_NODE":267.7157,"ARG_OF_PERICENTER":94.493,"MEAN_ANOMALY":265.6363,"EPHEMERIS_TYPE":0,"CLASSIFICATION_TYPE":"U","NORAD_CAT_ID":56068,"ELEMENT_SET_NO":999,"REV_AT_EPOCH":14251,"BSTAR":0.00012087882,"MEAN_MOTION_DOT":6.3e-7,"MEAN_MOTION_DDOT":0},{"OBJECT_NAME":"ONEWEB-0581","OBJECT_ID":"2023-043Z","EPOCH":"2026-02-18T01:30:46.003680","MEAN_MOTION":13.16595948,"ECCENTRICITY":0.00012765,"INCLINATION":87.8997,"RA_OF_ASC_NODE":252.4895,"ARG_OF_PERICENTER":69.2712,"MEAN_ANOMALY":290.8555,"EPHEMERIS_TYPE":0,"CLASSIFICATION_TYPE":"U","NORAD_CAT_ID":56069,"ELEMENT_SET_NO":999,"REV_AT_EPOCH":14328,"BSTAR":1.0566606e-5,"MEAN_MOTION_DOT":1.7e-7,"MEAN_MOTION_DDOT":0},{"OBJECT_NAME":"ONEWEB-0609","OBJECT_ID":"2023-043AA","EPOCH":"2026-02-18T03:41:48.273216","MEAN_MOTION":13.1554981,"ECCENTRICITY":0.00015882,"INCLINATION":87.8965,"RA_OF_ASC_NODE":282.9851,"ARG_OF_PERICENTER":86.8215,"MEAN_ANOMALY":273.3097,"EPHEMERIS_TYPE":0,"CLASSIFICATION_TYPE":"U","NORAD_CAT_ID":56070,"ELEMENT_SET_NO":999,"REV_AT_EPOCH":14078,"BSTAR":0.00023451556,"MEAN_MOTION_DOT":1.01e-6,"MEAN_MOTION_DDOT":0},{"OBJECT_NAME":"ONEWEB-0613","OBJECT_ID":"2023-043AB","EPOCH":"2026-02-18T03:34:57.652032","MEAN_MOTION":13.15550167,"ECCENTRICITY":0.00014249,"INCLINATION":87.8963,"RA_OF_ASC_NODE":282.9969,"ARG_OF_PERICENTER":92.8551,"MEAN_ANOMALY":267.2742,"EPHEMERIS_TYPE":0,"CLASSIFICATION_TYPE":"U","NORAD_CAT_ID":56071,"ELEMENT_SET_NO":999,"REV_AT_EPOCH":14078,"BSTAR":0.00014631972,"MEAN_MOTION_DOT":6.8e-7,"MEAN_MOTION_DDOT":0},{"OBJECT_NAME":"ONEWEB-0630","OBJECT_ID":"2023-043AC","EPOCH":"2026-02-18T03:28:06.188448","MEAN_MOTION":13.15546453,"ECCENTRICITY":0.00014117,"INCLINATION":87.8962,"RA_OF_ASC_NODE":282.9684,"ARG_OF_PERICENTER":92.7192,"MEAN_ANOMALY":267.41,"EPHEMERIS_TYPE":0,"CLASSIFICATION_TYPE":"U","NORAD_CAT_ID":56072,"ELEMENT_SET_NO":999,"REV_AT_EPOCH":14077,"BSTAR":-4.7856432e-5,"MEAN_MOTION_DOT":-5.0e-8,"MEAN_MOTION_DDOT":0},{"OBJECT_NAME":"ONEWEB-0632","OBJECT_ID":"2023-043AD","EPOCH":"2026-02-18T03:21:15.981120","MEAN_MOTION":13.15549987,"ECCENTRICITY":0.00013892,"INCLINATION":87.8965,"RA_OF_ASC_NODE":282.9861,"ARG_OF_PERICENTER":79.7817,"MEAN_ANOMALY":280.347,"EPHEMERIS_TYPE":0,"CLASSIFICATION_TYPE":"U","NORAD_CAT_ID":56073,"ELEMENT_SET_NO":999,"REV_AT_EPOCH":14077,"BSTAR":-0.00017017373,"MEAN_MOTION_DOT":-5.1e-7,"MEAN_MOTION_DDOT":0},{"OBJECT_NAME":"ONEWEB-0633","OBJECT_ID":"2023-043AE","EPOCH":"2026-02-18T03:12:08.683776","MEAN_MOTION":13.15550511,"ECCENTRICITY":0.00015659,"INCLINATION":87.8976,"RA_OF_ASC_NODE":282.9534,"ARG_OF_PERICENTER":102.6578,"MEAN_ANOMALY":257.4728,"EPHEMERIS_TYPE":0,"CLASSIFICATION_TYPE":"U","NORAD_CAT_ID":56074,"ELEMENT_SET_NO":999,"REV_AT_EPOCH":14075,"BSTAR":-0.00023196994,"MEAN_MOTION_DOT":-7.5e-7,"MEAN_MOTION_DDOT":0},{"OBJECT_NAME":"ONEWEB-0634","OBJECT_ID":"2023-043AF","EPOCH":"2026-02-18T04:41:07.687968","MEAN_MOTION":13.1554969,"ECCENTRICITY":0.00018508,"INCLINATION":87.8968,"RA_OF_ASC_NODE":282.9918,"ARG_OF_PERICENTER":88.2705,"MEAN_ANOMALY":271.8638,"EPHEMERIS_TYPE":0,"CLASSIFICATION_TYPE":"U","NORAD_CAT_ID":56075,"ELEMENT_SET_NO":999,"REV_AT_EPOCH":14075,"BSTAR":6.7828717e-5,"MEAN_MOTION_DOT":3.8e-7,"MEAN_MOTION_DDOT":0},{"OBJECT_NAME":"ONEWEB-0635","OBJECT_ID":"2023-043AG","EPOCH":"2026-02-18T04:34:16.582080","MEAN_MOTION":13.15549611,"ECCENTRICITY":0.00013431,"INCLINATION":87.897,"RA_OF_ASC_NODE":282.9457,"ARG_OF_PERICENTER":75.1945,"MEAN_ANOMALY":284.9334,"EPHEMERIS_TYPE":0,"CLASSIFICATION_TYPE":"U","NORAD_CAT_ID":56076,"ELEMENT_SET_NO":999,"REV_AT_EPOCH":14078,"BSTAR":0.00023304237,"MEAN_MOTION_DOT":1.01e-6,"MEAN_MOTION_DDOT":0},{"OBJECT_NAME":"ONEWEB-0636","OBJECT_ID":"2023-043AH","EPOCH":"2026-02-18T04:22:52.309632","MEAN_MOTION":13.15549454,"ECCENTRICITY":0.00013891,"INCLINATION":87.8962,"RA_OF_ASC_NODE":282.9622,"ARG_OF_PERICENTER":80.0839,"MEAN_ANOMALY":280.0448,"EPHEMERIS_TYPE":0,"CLASSIFICATION_TYPE":"U","NORAD_CAT_ID":56077,"ELEMENT_SET_NO":999,"REV_AT_EPOCH":14076,"BSTAR":0.00029863496,"MEAN_MOTION_DOT":1.25e-6,"MEAN_MOTION_DDOT":0},{"OBJECT_NAME":"ONEWEB-0637","OBJECT_ID":"2023-043AJ","EPOCH":"2026-02-18T04:13:46.056000","MEAN_MOTION":13.15550386,"ECCENTRICITY":0.00016822,"INCLINATION":87.8964,"RA_OF_ASC_NODE":282.9813,"ARG_OF_PERICENTER":73.6769,"MEAN_ANOMALY":286.4546,"EPHEMERIS_TYPE":0,"CLASSIFICATION_TYPE":"U","NORAD_CAT_ID":56078,"ELEMENT_SET_NO":999,"REV_AT_EPOCH":14078,"BSTAR":0.00050915862,"MEAN_MOTION_DOT":2.05e-6,"MEAN_MOTION_DDOT":0},{"OBJECT_NAME":"ONEWEB-0647","OBJECT_ID":"2023-043AK","EPOCH":"2026-02-18T04:06:54.304704","MEAN_MOTION":13.15549676,"ECCENTRICITY":0.0001382,"INCLINATION":87.8959,"RA_OF_ASC_NODE":282.9956,"ARG_OF_PERICENTER":83.5994,"MEAN_ANOMALY":276.5293,"EPHEMERIS_TYPE":0,"CLASSIFICATION_TYPE":"U","NORAD_CAT_ID":56079,"ELEMENT_SET_NO":999,"REV_AT_EPOCH":14077,"BSTAR":0.00039661064,"MEAN_MOTION_DOT":1.62e-6,"MEAN_MOTION_DDOT":0},{"OBJECT_NAME":"ONEWEB-0651","OBJECT_ID":"2023-043AL","EPOCH":"2026-02-18T04:00:03.540960","MEAN_MOTION":13.15550314,"ECCENTRICITY":0.00015165,"INCLINATION":87.8962,"RA_OF_ASC_NODE":282.9905,"ARG_OF_PERICENTER":74.3226,"MEAN_ANOMALY":285.8072,"EPHEMERIS_TYPE":0,"CLASSIFICATION_TYPE":"U","NORAD_CAT_ID":56080,"ELEMENT_SET_NO":999,"REV_AT_EPOCH":14197,"BSTAR":0.00048479749,"MEAN_MOTION_DOT":1.95e-6,"MEAN_MOTION_DDOT":0},{"OBJECT_NAME":"ONEWEB-0718","OBJECT_ID":"2023-043AM","EPOCH":"2026-02-18T03:53:12.318432","MEAN_MOTION":13.15546953,"ECCENTRICITY":0.00020185,"INCLINATION":87.8961,"RA_OF_ASC_NODE":282.972,"ARG_OF_PERICENTER":89.3805,"MEAN_ANOMALY":270.7557,"EPHEMERIS_TYPE":0,"CLASSIFICATION_TYPE":"U","NORAD_CAT_ID":56081,"ELEMENT_SET_NO":999,"REV_AT_EPOCH":14078,"BSTAR":0.00044472473,"MEAN_MOTION_DOT":1.8e-6,"MEAN_MOTION_DDOT":0},{"OBJECT_NAME":"ONEWEB-0561","OBJECT_ID":"2023-068A","EPOCH":"2026-02-18T04:24:45.218880","MEAN_MOTION":13.20771704,"ECCENTRICITY":0.00012554,"INCLINATION":87.9194,"RA_OF_ASC_NODE":298.2008,"ARG_OF_PERICENTER":70.3471,"MEAN_ANOMALY":289.7797,"EPHEMERIS_TYPE":0,"CLASSIFICATION_TYPE":"U","NORAD_CAT_ID":56710,"ELEMENT_SET_NO":999,"REV_AT_EPOCH":13379,"BSTAR":0.00028581247,"MEAN_MOTION_DOT":1.29e-6,"MEAN_MOTION_DDOT":0},{"OBJECT_NAME":"ONEWEB-0668","OBJECT_ID":"2023-068B","EPOCH":"2026-02-17T23:04:50.550816","MEAN_MOTION":13.16595341,"ECCENTRICITY":0.0002111,"INCLINATION":87.901,"RA_OF_ASC_NODE":252.4901,"ARG_OF_PERICENTER":87.9304,"MEAN_ANOMALY":272.2069,"EPHEMERIS_TYPE":0,"CLASSIFICATION_TYPE":"U","NORAD_CAT_ID":56711,"ELEMENT_SET_NO":999,"REV_AT_EPOCH":13609,"BSTAR":-7.8126e-5,"MEAN_MOTION_DOT":-1.7e-7,"MEAN_MOTION_DDOT":0},{"OBJECT_NAME":"ONEWEB-0676","OBJECT_ID":"2023-068C","EPOCH":"2026-02-18T01:05:40.144992","MEAN_MOTION":13.16592894,"ECCENTRICITY":0.00013691,"INCLINATION":87.8998,"RA_OF_ASC_NODE":252.4881,"ARG_OF_PERICENTER":81.5947,"MEAN_ANOMALY":278.5339,"EPHEMERIS_TYPE":0,"CLASSIFICATION_TYPE":"U","NORAD_CAT_ID":56712,"ELEMENT_SET_NO":999,"REV_AT_EPOCH":13602,"BSTAR":-3.0919181e-5,"MEAN_MOTION_DOT":1.0e-8,"MEAN_MOTION_DDOT":0},{"OBJECT_NAME":"ONEWEB-0677","OBJECT_ID":"2023-068D","EPOCH":"2026-02-18T05:57:55.925280","MEAN_MOTION":13.20771441,"ECCENTRICITY":0.00017129,"INCLINATION":87.9205,"RA_OF_ASC_NODE":298.1783,"ARG_OF_PERICENTER":74.5571,"MEAN_ANOMALY":285.5751,"EPHEMERIS_TYPE":0,"CLASSIFICATION_TYPE":"U","NORAD_CAT_ID":56713,"ELEMENT_SET_NO":999,"REV_AT_EPOCH":13410,"BSTAR":0.00026827101,"MEAN_MOTION_DOT":1.22e-6,"MEAN_MOTION_DDOT":0},{"OBJECT_NAME":"ONEWEB-0678","OBJECT_ID":"2023-068E","EPOCH":"2026-02-18T04:57:05.855328","MEAN_MOTION":13.15549748,"ECCENTRICITY":0.00012857,"INCLINATION":87.8975,"RA_OF_ASC_NODE":282.9437,"ARG_OF_PERICENTER":92.0452,"MEAN_ANOMALY":268.0825,"EPHEMERIS_TYPE":0,"CLASSIFICATION_TYPE":"U","NORAD_CAT_ID":56714,"ELEMENT_SET_NO":999,"REV_AT_EPOCH":13364,"BSTAR":-0.00015386498,"MEAN_MOTION_DOT":-4.5e-7,"MEAN_MOTION_DDOT":0},{"OBJECT_NAME":"ONEWEB-0679","OBJECT_ID":"2023-068F","EPOCH":"2026-02-18T01:55:50.184480","MEAN_MOTION":13.16595395,"ECCENTRICITY":0.00018502,"INCLINATION":87.9006,"RA_OF_ASC_NODE":252.4653,"ARG_OF_PERICENTER":74.0333,"MEAN_ANOMALY":286.1002,"EPHEMERIS_TYPE":0,"CLASSIFICATION_TYPE":"U","NORAD_CAT_ID":56715,"ELEMENT_SET_NO":999,"REV_AT_EPOCH":13605,"BSTAR":0.0004091184,"MEAN_MOTION_DOT":1.69e-6,"MEAN_MOTION_DDOT":0}]
